STARLINK-30387
1 57788U 23134T   26061.16668981  .00682878  00000+0  35736-1 0  9991
2 57788  43.0002 224.7376 0001723 282.0750 286.6005 15.12729387  5821
